SPACEBEE-14             
1 46311U 20061AR  22230.15127713  .00025611  00000+0  11130-2 0  9992
2 46311  97.4478 301.9735 0000682  87.6418 272.4897 15.22268490107965
SPACEBEE-34             
1 46933U 20085E   22230.94459281  .00161629  00000+0  21403-2 0  9997
2 46933  97.4277  13.8374 0008907 221.7043 138.3533 15.57702268 97344
SPACEBEE-35             
1 46934U 20085F   22230.96414228  .00097447  00000+0  14963-2 0  9991
2 46934  97.4320  13.4060 0008590 213.8414 146.2120 15.53899111 97311
SPACEBEE-36             
1 46935U 20085G   22231.17417805  .00100270  00000+0  16054-2 0  9992
2 46935  97.4300  13.5609 0006736 229.7476 130.3716 15.52742404 97332
SPACEBEE-37             
1 46936U 20085H   22231.08207979  .00072069  00000+0  13471-2 0  9996
2 46936  97.4400  12.8603 0008763 218.1807 141.9347 15.48452128 97279
SPACEBEE-38             
1 46937U 20085J   22231.11635222  .00070273  00000+0  13289-2 0  9999
2 46937  97.4328  12.6362 0010097 210.4044 149.6743 15.48108834 97277
SPACEBEENZ-3            
1 46938U 20085K   22230.93808876  .00023607  00000+0  69295-3 0  9994
2 46938  97.4426   9.9424 0011600 216.1884 143.8588 15.35088125 97067
SPACEBEENZ-4            
1 46939U 20085L   22230.35615720  .00022938  00000+0  68753-3 0  9999
2 46939  97.4439   9.1975 0011620 221.0268 139.0099 15.34434083 96967
SPACEBEENZ-5            
1 46941U 20085N   22231.18544590  .00022117  00000+0  67007-3 0  9990
2 46941  97.4458   9.9330 0011628 218.1665 141.8830 15.34102257 97083
SPACEBEENZ-6            
1 46942U 20085P   22230.37983896  .00021267  00000+0  65337-3 0  9996
2 46942  97.4430   9.0605 0011890 222.8813 137.1502 15.33664256 96958
SPACEBEE-33             
1 46944U 20085R   22230.95986193  .00050782  00000+0  11176-2 0  9990
2 46944  97.4328  11.0836 0009106 224.8612 135.1919 15.43765358 97161
SPACEBEE-29             
1 46945U 20085S   22231.14727475  .00063599  00000+0  12725-2 0  9990
2 46945  97.4340  11.7560 0008447 230.4403 129.6035 15.46518890 97229
SPACEBEE-32             
1 46946U 20085T   22231.17203456  .00054671  00000+0  11772-2 0  9994
2 46946  97.4248  11.4070 0008700 231.8685 128.2407 15.44399558 97201
SPACEBEE-31             
1 46947U 20085U   22230.93256512  .00058222  00000+0  12255-2 0  9992
2 46947  97.4310  11.2754 0009429 217.8043 142.2555 15.45047436 97172
SPACEBEE-28             
1 46948U 20085V   22230.84750964  .00065734  00000+0  12885-2 0  9998
2 46948  97.4306  11.5390 0009405 229.7791 130.2563 15.47096592 97189
SPACEBEE-30             
1 46949U 20085W   22231.20198983  .00059439  00000+0  12186-2 0  9996
2 46949  97.4320  11.6744 0009550 232.9584 127.0750 15.45814824 97228
SPACEBEE-27             
1 46950U 20085X   22230.58102553  .00080185  00000+0  14190-2 0  9995
2 46950  97.4304  11.7027 0008651 228.5507 131.5082 15.49985063 97174
