[{"OBJECT_NAME":"SPACEBEE-14","OBJECT_ID":"2020-061AR","EPOCH":"2022-08-18T03:37:50.344032","MEAN_MOTION":15.2226849,"ECCENTRICITY":6.82e-5,"INCLINATION":97.4478,"RA_OF_ASC_NODE":301.9735,"ARG_OF_PERICENTER":87.6418,"MEAN_ANOMALY":272.4897,"EPHEMERIS_TYPE":0,"CLASSIFICATION_TYPE":"U","NORAD_CAT_ID":46311,"ELEMENT_SET_NO":999,"REV_AT_EPOCH":10796,"BSTAR":0.001113,"MEAN_MOTION_DOT":0.00025611,"MEAN_MOTION_DDOT":0},{"OBJECT_NAME":"SPACEBEE-34","OBJECT_ID":"2020-085E","EPOCH":"2022-08-18T22:40:12.818784","MEAN_MOTION":15.57702268,"ECCENTRICITY":0.0008907,"INCLINATION":97.4277,"RA_OF_ASC_NODE":13.8374,"ARG_OF_PERICENTER":221.7043,"MEAN_ANOMALY":138.3533,"EPHEMERIS_TYPE":0,"CLASSIFICATION_TYPE":"U","NORAD_CAT_ID":46933,"ELEMENT_SET_NO":999,"REV_AT_EPOCH":9734,"BSTAR":0.0021403,"MEAN_MOTION_DOT":0.00161629,"MEAN_MOTION_DDOT":0},{"OBJECT_NAME":"SPACEBEE-35","OBJECT_ID":"2020-085F","EPOCH":"2022-08-18T23:08:21.892992","MEAN_MOTION":15.53899111,"ECCENTRICITY":0.000859,"INCLINATION":97.432,"RA_OF_ASC_NODE":13.406,"ARG_OF_PERICENTER":213.8414,"MEAN_ANOMALY":146.212,"EPHEMERIS_TYPE":0,"CLASSIFICATION_TYPE":"U","NORAD_CAT_ID":46934,"ELEMENT_SET_NO":999,"REV_AT_EPOCH":9731,"BSTAR":0.0014963,"MEAN_MOTION_DOT":0.00097447,"MEAN_MOTION_DDOT":0},{"OBJECT_NAME":"SPACEBEE-36","OBJECT_ID":"2020-085G","EPOCH":"2022-08-19T04:10:48.983520","MEAN_MOTION":15.52742404,"ECCENTRICITY":0.0006736,"INCLINATION":97.43,"RA_OF_ASC_NODE":13.5609,"ARG_OF_PERICENTER":229.7476,"MEAN_ANOMALY":130.3716,"EPHEMERIS_TYPE":0,"CLASSIFICATION_TYPE":"U","NORAD_CAT_ID":46935,"ELEMENT_SET_NO":999,"REV_AT_EPOCH":9733,"BSTAR":0.0016054,"MEAN_MOTION_DOT":0.0010027,"MEAN_MOTION_DDOT":0},{"OBJECT_NAME":"SPACEBEE-37","OBJECT_ID":"2020-085H","EPOCH":"2022-08-19T01:58:11.693856","MEAN_MOTION":15.48452128,"ECCENTRICITY":0.0008763,"INCLINATION":97.44,"RA_OF_ASC_NODE":12.8603,"ARG_OF_PERICENTER":218.1807,"MEAN_ANOMALY":141.9347,"EPHEMERIS_TYPE":0,"CLASSIFICATION_TYPE":"U","NORAD_CAT_ID":46936,"ELEMENT_SET_NO":999,"REV_AT_EPOCH":9727,"BSTAR":0.0013471,"MEAN_MOTION_DOT":0.00072069,"MEAN_MOTION_DDOT":0},{"OBJECT_NAME":"SPACEBEE-38","OBJECT_ID":"2020-085J","EPOCH":"2022-08-19T02:47:32.831808","MEAN_MOTION":15.48108834,"ECCENTRICITY":0.0010097,"INCLINATION":97.4328,"RA_OF_ASC_NODE":12.6362,"ARG_OF_PERICENTER":210.4044,"MEAN_ANOMALY":149.6743,"EPHEMERIS_TYPE":0,"CLASSIFICATION_TYPE":"U","NORAD_CAT_ID":46937,"ELEMENT_SET_NO":999,"REV_AT_EPOCH":9727,"BSTAR":0.0013289,"MEAN_MOTION_DOT":0.00070273,"MEAN_MOTION_DDOT":0},{"OBJECT_NAME":"SPACEBEENZ-3","OBJECT_ID":"2020-085K","EPOCH":"2022-08-18T22:30:50.868864","MEAN_MOTION":15.35088125,"ECCENTRICITY":0.00116,"INCLINATION":97.4426,"RA_OF_ASC_NODE":9.9424,"ARG_OF_PERICENTER":216.1884,"MEAN_ANOMALY":143.8588,"EPHEMERIS_TYPE":0,"CLASSIFICATION_TYPE":"U","NORAD_CAT_ID":46938,"ELEMENT_SET_NO":999,"REV_AT_EPOCH":9706,"BSTAR":0.00069295,"MEAN_MOTION_DOT":0.00023607,"MEAN_MOTION_DDOT":0},{"OBJECT_NAME":"SPACEBEENZ-4","OBJECT_ID":"2020-085L","EPOCH":"2022-08-18T08:32:51.982080","MEAN_MOTION":15.34434083,"ECCENTRICITY":0.001162,"INCLINATION":97.4439,"RA_OF_ASC_NODE":9.1975,"ARG_OF_PERICENTER":221.0268,"MEAN_ANOMALY":139.0099,"EPHEMERIS_TYPE":0,"CLASSIFICATION_TYPE":"U","NORAD_CAT_ID":46939,"ELEMENT_SET_NO":999,"REV_AT_EPOCH":9696,"BSTAR":0.00068753,"MEAN_MOTION_DOT":0.00022938,"MEAN_MOTION_DDOT":0},{"OBJECT_NAME":"SPACEBEENZ-5","OBJECT_ID":"2020-085N","EPOCH":"2022-08-19T04:27:02.525760","MEAN_MOTION":15.34102257,"ECCENTRICITY":0.0011628,"INCLINATION":97.4458,"RA_OF_ASC_NODE":9.933,"ARG_OF_PERICENTER":218.1665,"MEAN_ANOMALY":141.883,"EPHEMERIS_TYPE":0,"CLASSIFICATION_TYPE":"U","NORAD_CAT_ID":46941,"ELEMENT_SET_NO":999,"REV_AT_EPOCH":9708,"BSTAR":0.00067007,"MEAN_MOTION_DOT":0.00022117,"MEAN_MOTION_DDOT":0},{"OBJECT_NAME":"SPACEBEENZ-6","OBJECT_ID":"2020-085P","EPOCH":"2022-08-18T09:06:58.086144","MEAN_MOTION":15.33664256,"ECCENTRICITY":0.001189,"INCLINATION":97.443,"RA_OF_ASC_NODE":9.0605,"ARG_OF_PERICENTER":222.8813,"MEAN_ANOMALY":137.1502,"EPHEMERIS_TYPE":0,"CLASSIFICATION_TYPE":"U","NORAD_CAT_ID":46942,"ELEMENT_SET_NO":999,"REV_AT_EPOCH":9695,"BSTAR":0.00065337,"MEAN_MOTION_DOT":0.00021267,"MEAN_MOTION_DDOT":0},{"OBJECT_NAME":"SPACEBEE-33","OBJECT_ID":"2020-085R","EPOCH":"2022-08-18T23:02:12.070752","MEAN_MOTION":15.43765358,"ECCENTRICITY":0.0009106,"INCLINATION":97.4328,"RA_OF_ASC_NODE":11.0836,"ARG_OF_PERICENTER":224.8612,"MEAN_ANOMALY":135.1919,"EPHEMERIS_TYPE":0,"CLASSIFICATION_TYPE":"U","NORAD_CAT_ID":46944,"ELEMENT_SET_NO":999,"REV_AT_EPOCH":9716,"BSTAR":0.0011176,"MEAN_MOTION_DOT":0.00050782,"MEAN_MOTION_DDOT":0},{"OBJECT_NAME":"SPACEBEE-29","OBJECT_ID":"2020-085S","EPOCH":"2022-08-19T03:32:04.538400","MEAN_MOTION":15.4651889,"ECCENTRICITY":0.0008447,"INCLINATION":97.434,"RA_OF_ASC_NODE":11.756,"ARG_OF_PERICENTER":230.4403,"MEAN_ANOMALY":129.6035,"EPHEMERIS_TYPE":0,"CLASSIFICATION_TYPE":"U","NORAD_CAT_ID":46945,"ELEMENT_SET_NO":999,"REV_AT_EPOCH":9722,"BSTAR":0.0012725,"MEAN_MOTION_DOT":0.00063599,"MEAN_MOTION_DDOT":0},{"OBJECT_NAME":"SPACEBEE-32","OBJECT_ID":"2020-085T","EPOCH":"2022-08-19T04:07:43.785984","MEAN_MOTION":15.44399558,"ECCENTRICITY":0.00087,"INCLINATION":97.4248,"RA_OF_ASC_NODE":11.407,"ARG_OF_PERICENTER":231.8685,"MEAN_ANOMALY":128.2407,"EPHEMERIS_TYPE":0,"CLASSIFICATION_TYPE":"U","NORAD_CAT_ID":46946,"ELEMENT_SET_NO":999,"REV_AT_EPOCH":9720,"BSTAR":0.0011772,"MEAN_MOTION_DOT":0.00054671,"MEAN_MOTION_DDOT":0},{"OBJECT_NAME":"SPACEBEE-31","OBJECT_ID":"2020-085U","EPOCH":"2022-08-18T22:22:53.626368","MEAN_MOTION":15.45047436,"ECCENTRICITY":0.0009429,"INCLINATION":97.431,"RA_OF_ASC_NODE":11.2754,"ARG_OF_PERICENTER":217.8043,"MEAN_ANOMALY":142.2555,"EPHEMERIS_TYPE":0,"CLASSIFICATION_TYPE":"U","NORAD_CAT_ID":46947,"ELEMENT_SET_NO":999,"REV_AT_EPOCH":9717,"BSTAR":0.0012255,"MEAN_MOTION_DOT":0.00058222,"MEAN_MOTION_DDOT":0},{"OBJECT_NAME":"SPACEBEE-28","OBJECT_ID":"2020-085V","EPOCH":"2022-08-18T20:20:24.832896","MEAN_MOTION":15.47096592,"ECCENTRICITY":0.0009405,"INCLINATION":97.4306,"RA_OF_ASC_NODE":11.539,"ARG_OF_PERICENTER":229.7791,"MEAN_ANOMALY":130.2563,"EPHEMERIS_TYPE":0,"CLASSIFICATION_TYPE":"U","NORAD_CAT_ID":46948,"ELEMENT_SET_NO":999,"REV_AT_EPOCH":9718,"BSTAR":0.0012885,"MEAN_MOTION_DOT":0.00065734,"MEAN_MOTION_DDOT":0},{"OBJECT_NAME":"SPACEBEE-30","OBJECT_ID":"2020-085W","EPOCH":"2022-08-19T04:50:51.921312","MEAN_MOTION":15.45814824,"ECCENTRICITY":0.000955,"INCLINATION":97.432,"RA_OF_ASC_NODE":11.6744,"ARG_OF_PERICENTER":232.9584,"MEAN_ANOMALY":127.075,"EPHEMERIS_TYPE":0,"CLASSIFICATION_TYPE":"U","NORAD_CAT_ID":46949,"ELEMENT_SET_NO":999,"REV_AT_EPOCH":9722,"BSTAR":0.0012186,"MEAN_MOTION_DOT":0.00059439,"MEAN_MOTION_DDOT":0},{"OBJECT_NAME":"SPACEBEE-27","OBJECT_ID":"2020-085X","EPOCH":"2022-08-18T13:56:40.605792","MEAN_MOTION":15.49985063,"ECCENTRICITY":0.0008651,"INCLINATION":97.4304,"RA_OF_ASC_NODE":11.7027,"ARG_OF_PERICENTER":228.5507,"MEAN_ANOMALY":131.5082,"EPHEMERIS_TYPE":0,"CLASSIFICATION_TYPE":"U","NORAD_CAT_ID":46950,"ELEMENT_SET_NO":999,"REV_AT_EPOCH":9717,"BSTAR":0.001419,"MEAN_MOTION_DOT":0.00080185,"MEAN_MOTION_DDOT":0}]